satname,norad_id,inclination_deg,eccentricity,mean_motion_rev_per_day,perigee_km,apogee_km,l1,l2
STARLINK-1309,45414,53.0608,0.0006431,15.65693387,366.9047967495417,375.5858522953431,1 45414U 20019BG  26132.39992006  .00028331  00000+0  27967-3 0  9992,2 45414  53.0608 172.9554 0006431 331.0112  29.0545 15.65693387339980
STARLINK-1316,45415,53.1576,0.000606,15.36294163,452.9370327904917,461.22131479312793,1 45415U 20019BH  26132.88471865  .00025575  00000+0  72042-3 0  9993,2 45415  53.1576 189.7616 0006060 350.7452   9.3439 15.36294163339849
STARLINK-1286,45417,53.0462,0.0003524,15.56124222,396.4983992548223,401.27484550387544,1 45417U 20019BK  26132.55451045  .00029802  00000+0  42412-3 0  9992,2 45417  53.0462 182.6407 0003524 335.4761  24.6081 15.56124222340158
STARLINK-1308,45419,53.047,0.0007506,15.62463311,375.4710424690411,385.6171745491347,1 45419U 20019BM  26132.88841936  .00101848  00000+0  11155-2 0  9992,2 45419  53.0470 200.9968 0007506 324.2500  35.8010 15.62463311339679
STARLINK-1329,45531,53.042,0.0005118,15.69954786,355.5782773977344,362.4744378105779,1 45531U 20025A   26132.80755879  .00040974  00000+0  33773-3 0  9999,2 45531  53.0420 126.4954 0005118  49.9971 310.1494 15.69954786335495
STARLINK-1338,45532,53.0439,0.0004715,15.65254342,369.32444577894694,375.6903034241959,1 45532U 20025B   26132.43103882  .00030868  00000+0  30961-3 0  9997,2 45532  53.0439 134.0378 0004715  28.2921 331.8349 15.65254342335359
STARLINK-1350,45535,53.0706,0.0001485,15.37634762,452.0912652904808,454.1201443738164,1 45535U 20025E   26132.32350808  .00006070  00000+0  17221-3 0  9992,2 45535  53.0706  93.9265 0001485  60.5570 299.5581 15.37634762335947
STARLINK-1362,45538,53.1585,0.0003277,15.34636348,459.75934112614596,464.24236747585473,1 45538U 20025H   26132.97028941 -.00157221  00000+0 -47030-2 0  9993,2 45538  53.1585 161.4883 0003277  53.9727 306.1579 15.34636348335035
STARLINK-1368,45540,53.1568,0.0004281,15.35075718,457.7678964247134,463.62330489739907,1 45540U 20025K   26132.46337971  .00025774  00000+0  75487-3 0  9999,2 45540  53.1568 164.2357 0004281  32.3124 327.8140 15.35075718334946
STARLINK-1371,45542,53.045,0.0007089,15.57673074,389.59240040972236,399.19449407782395,1 45542U 20025M   26132.41584713  .00055792  00000+0  74094-3 0  9990,2 45542  53.0450 142.4841 0007089  24.4575 335.6771 15.57673074335237
STARLINK-1372,45543,53.1574,0.0003942,15.35630465,456.3532626444894,461.74369967783605,1 45543U 20025N   26132.49598933  .00033381  00000+0  95641-3 0  9999,2 45543  53.1574 163.6793 0003942  24.3969 335.7220 15.35630465334059
STARLINK-1373,45544,53.0452,0.0004173,15.66996375,364.68835488552395,370.31826628874023,1 45544U 20025P   26132.73457574  .00032323  00000+0  30213-3 0  9991,2 45544  53.0452 138.1246 0004173   4.0348 356.0700 15.66996375335326
STARLINK-1327,45555,53.0409,0.0005229,15.64756534,370.40839431503264,377.4697154532296,1 45555U 20025AA  26132.92870504  .00029551  00000+0  30255-3 0  9991,2 45555  53.0409 113.8879 0005229   9.0358 351.0749 15.64756534335676
STARLINK-1356,45564,53.0464,0.0004224,15.54432712,400.9374759596394,406.66685816797417,1 45564U 20025AK  26132.70231694  .00057186  00000+0  85620-3 0  9999,2 45564  53.0464 126.7762 0004224  13.5607 346.5515 15.54432712335478
STARLINK-1357,45565,53.0445,0.0007945,15.66532429,363.47463977745156,374.1955784588399,1 45565U 20025AL  26132.57003883  .00033880  00000+0  32199-3 0  9990,2 45565  53.0445  85.9095 0007945  43.4562 316.7078 15.66532429336044
STARLINK-1361,45567,53.0442,0.0002313,15.58087565,391.62607505570213,394.75849198225933,1 45567U 20025AN  26132.91405796  .00070002  00000+0  91287-3 0  9999,2 45567  53.0442 124.3096 0002313  13.5561 346.5512 15.58087565335537
STARLINK-1363,45568,53.032,0.0001791,16.00461312,271.9490548094691,274.33154233781715,1 45568U 20025AP  26132.81662690  .00278263  43802-4  52156-3 0  9990,2 45568  53.0320  72.6365 0001791 147.8754 212.2385 16.00461312336230
STARLINK-1366,45569,53.0328,0.000122,15.95610082,285.80189748314933,287.4280969704714,1 45569U 20025AQ  26133.00003472  .00176448  23350-4  43679-3 0  9998,2 45569  53.0328  73.5494 0001220  96.4575 352.9923 15.95610082  6034
STARLINK-1376,45570,53.1578,0.000556,15.35950828,454.2967848552198,461.8986778764993,1 45570U 20025AR  26132.73908377  .00027657  00000+0  78664-3 0  9998,2 45570  53.1578 139.0067 0005560  26.1287 333.9996 15.35950828335324
STARLINK-1320,45572,53.0465,0.0003528,15.80167751,327.5992185280438,332.3324558899785,1 45572U 20025AT  26132.98777439  .00082695  00000+0  43207-3 0  9998,2 45572  53.0465  25.7701 0003528 206.2637 153.8206 15.80167751336934
STARLINK-1321,45573,53.0422,0.0005487,15.59370313,385.7649578047749,393.19173888805017,1 45573U 20025AU  26132.23533904  .00058413  00000+0  72750-3 0  9990,2 45573  53.0422 111.7034 0005487  37.8935 322.2462 15.59370313335344
STARLINK-1331,45578,53.0468,0.0007017,15.58861001,386.20247765438944,395.7022176448809,1 45578U 20025AZ  26132.95995868  .00069195  00000+0  87584-3 0  9995,2 45578  53.0468 115.0233 0007017  20.6169 339.5125 15.58861001335678
STARLINK-1333,45580,53.1578,0.0003585,15.32903176,464.70169887567044,469.60977376761275,1 45580U 20025BB  26132.34462321  .00025218  00000+0  79131-3 0  9991,2 45580  53.1578 141.8036 0003585  47.5441 312.5863 15.32903176335255
STARLINK-1335,45581,53.1548,0.0004618,15.3445669,459.3757285532283,465.69377298223753,1 45581U 20025BC  26132.33588104  .00019857  00000+0  59608-3 0  9998,2 45581  53.1548 138.8637 0004618  39.1420 320.9916 15.34456690335289
STARLINK-1337,45582,53.0459,0.000756,15.70861496,351.34228728740163,361.52495806889056,1 45582U 20025BD  26132.94784641  .00043357  00000+0  34352-3 0  9991,2 45582  53.0459 106.6349 0007560  29.3913 330.7528 15.70861496335776
STARLINK-1347,45586,53.0387,0.0005113,15.65750099,367.63147107414625,374.53322277831376,1 45586U 20025BH  26132.14661393  .00037108  00000+0  36352-3 0  9994,2 45586  53.0387  80.0554 0005113  57.4357 302.7150 15.65750099336073
STARLINK-1364,45589,53.0437,0.0005275,15.60180348,383.5669977626367,390.7043604390874,1 45589U 20025BL  26132.43821509  .00037612  00000+0  45765-3 0  9994,2 45589  53.0437 114.9043 0005275   1.8633 358.2398 15.60180348335619
STARLINK-1365,45590,53.0476,0.000552,15.55039298,398.29574052050975,405.78105415917344,1 45590U 20025BM  26132.35975410  .00051631  00000+0  75711-3 0  9999,2 45590  53.0476 147.8628 0005520 359.7860   0.3147 15.55039298335166
STARLINK-1443,45660,53.1315,0.0004372,15.30476095,471.3948982828315,477.3867486116533,1 45660U 20035D   26132.94771340  .00031915  00000+0  10756-2 0  9999,2 45660  53.1315 127.2843 0004372  21.1718 338.9462 15.30476095328585
STARLINK-1446,45663,53.0226,0.0004632,15.46137965,424.8838186533694,431.1890577265085,1 45663U 20035G   26132.94231665  .00023655  00000+0  48198-3 0  9997,2 45663  53.0226  53.4702 0004632  97.5539 262.5993 15.46137965329601
STARLINK-1448,45665,53.0437,0.000742,15.65195255,367.668163090857,377.68637146349647,1 45665U 20035J   26132.94033951  .00034486  00000+0  34565-3 0  9994,2 45665  53.0437 100.1097 0007420  21.8628 338.2702 15.65195255328943
STARLINK-1451,45668,53.0507,0.0002593,15.13056115,525.0958733333227,528.6768184404991,1 45668U 20035M   26132.74587151  .00014656  00000+0  83444-3 0  9998,2 45668  53.0507 136.1326 0002593  40.4991 319.6194 15.13056115328430
STARLINK-1452,45669,53.0265,8.14e-05,15.54429868,403.2583887409546,404.3624897840673,1 45669U 20035N   26132.13729806  .00068957  00000+0  10298-2 0  9996,2 45669  53.0265  77.2414 0000814  78.8362 281.2739 15.54429868329205
STARLINK-1453,45670,53.041,0.0003356,15.65599378,369.2503236420371,373.780690404752,1 45670U 20035P   26132.91473091  .00041401  00000+0  40731-3 0  9997,2 45670  53.0410  60.6113 0003356 102.1591 257.9800 15.65599378329395
STARLINK-1454,45671,53.0436,0.0003918,15.63284002,375.5313341140036,380.8255829072941,1 45671U 20035Q   26132.21750989  .00096614  00000+0  10267-2 0  9991,2 45671  53.0436 104.6022 0003918   7.8524 352.2550 15.63284002328813
STARLINK-1456,45673,53.0433,0.000729,15.61371245,378.7658372287815,388.62458859520757,1 45673U 20035S   26132.60731089  .00076707  00000+0  88071-3 0  9996,2 45673  53.0433  96.9885 0007290  55.5672 304.6029 15.61371245328976
STARLINK-1457,45674,53.0336,0.0003468,16.12083732,238.83766158545313,243.42878741316508,1 45674U 20035T   26132.98621723  .00629247  22729-3  56777-3 0  9998,2 45674  53.0336  54.3975 0003468 216.6042 143.4755 16.12083732329560
STARLINK-1458,45675,53.0469,0.0006536,15.52607091,404.68130326589835,413.5536022865672,1 45675U 20035U   26132.92880586  .00058128  00000+0  92911-3 0  9995,2 45675  53.0469 108.3027 0006536  11.9343 348.1819 15.52607091328809
STARLINK-1460,45676,53.1571,0.0004224,15.3281513,464.52630378501,470.30942853594206,1 45676U 20035V   26132.70848116  .00030381  00000+0  95288-3 0  9996,2 45676  53.1571 127.2616 0004224  53.9918 306.1475 15.32815130328529
STARLINK-1392,45677,53.1533,0.0003463,15.35939036,455.76532073461294,460.5001211433355,1 45677U 20035W   26132.97591592  .00032659  00000+0  92693-3 0  9996,2 45677  53.1533 125.2467 0003463  59.8174 300.3172 15.35939036328618
STARLINK-1394,45679,53.0416,0.0007943,15.6120863,378.793448696566,389.53604124862886,1 45679U 20035Y   26132.28540270  .00073712  00000+0  85200-3 0  9990,2 45679  53.0416  88.7894 0007943  60.1671 300.0130 15.61208630329058
STARLINK-1402,45685,53.0415,0.000766,15.54644136,397.992785020434,408.3817738165044,1 45685U 20035AE  26132.55771538  .00053403  00000+0  79363-3 0  9998,2 45685  53.0415  76.9331 0007660  81.6213 278.5665 15.54644136329256
STARLINK-1404,45686,53.1573,0.0005223,15.41652574,437.66985756395206,444.7933700179183,1 45686U 20035AF  26132.35671887  .00042338  00000+0  99328-3 0  9991,2 45686  53.1573 110.9068 0005223  67.5647 292.5911 15.41652574328762
